[
    {
        "Altitude(m)": 622205.9048735994,
        "Argument of Periapsis(deg)": 0.0,
        "Eccentricity": 0.0,
        "Inclination(deg)": 60.0,
        "Latitude(deg)": -52.16253859161508,
        "Longitude(deg)": -87.29959834653691,
        "Mean Anomaly(deg)": -114.54550000000005,
        "RAAN(deg)": 145.0,
        "Satellite Name": "Test1 653",
        "Satellite Number": 653,
        "Semi-Major Axis(m)": 6980739.136638005,
        "Time(s)": 0
    },
    {
        "Altitude(m)": 622344.8112624976,
        "Argument of Periapsis(deg)": 0.00010418945913296404,
        "Eccentricity": 0.0,
        "Inclination(deg)": 60.0,
        "Latitude(deg)": -52.52011809221671,
        "Longitude(deg)": -86.51838406196934,
        "Mean Anomaly(deg)": -113.92539385453819,
        "RAAN(deg)": 144.99957995086027,
        "Satellite Name": "Test1 653",
        "Satellite Number": 653,
        "Semi-Major Axis(m)": 6980739.136638005,
        "Time(s)": 10
    }
]